{{Infobox Planet  
| name = 663 Gerlinde
| image = 
| caption = 
| discovery=yes | physical_characteristics = yes | bgcolour=#FFFFC0
| discovery_ref = 
| discoverer = [[奥古斯特·科普夫|奥古斯特·科普夫]]
| discovery_site = [[海德堡|海德堡]]（[[天文台编号列表|024]]）
| discovered =  1908年6月24日
| mp_name = 663
| alt_names = 1908 DG
| named_after = Gerlinde
| mp_category=[[小行星带|主带小行星]]
| orbit_ref = <ref>[http://ssd.jpl.nasa.gov/sbdb.cgi?sstr=663 663 Gerlinde (1908 DG)]</ref>
| epoch = 2011年8月27日
| semimajor= 3.062708197226867AU
| perihelion=2.599019793544258AU
| aphelion= 3.526396600909475[[天文单位|AU]]
| eccentricity =0.1513981658789615			
| period =1957.748312227775[[日|地球日]]<br>5.36[[年|地球年]] 
| inclination=17.85253060530408[[角度|°]]
| asc_node=232.9826038579635°
| arg_peri=310.66128970104°
| mean_anomaly=166.3448232136718°
| avg_speed=
 | dimensions=100.88千米
 | mass=
 | density=
 | surface_grav=
 | escape_velocity=
 | rotation=10.251小时
 | spectral_type=[[X-型小行星|X]]
 | magnitude=
 | abs_magnitude=9.21
 | albedo=0.0359
 | single_temperature=
}}
'''小行星663'''（'''663 Gerlinde'''），是由[[德国|德国]][[天文学家|天文学家]][[奥古斯特·科普夫|奥古斯特·科普夫]]于1908年6月24日在德国[[海德堡|海德堡]]发现的[[小行星带|主带]][[小行星|小行星]]。

小行星663以德国女性名字Gerlinde命名。

== 参考资料 ==
{{Reflist}}

{{Minor Planet Number|(662)[[小行星662|小行星662]]|(664)[[小行星664|小行星664]]}}

[[Category:小行星带天体|Category:小行星带天体]]
[[Category:1908年发现的小行星|Category:1908年发现的小行星]]
[[Category:X-型小行星|Category:X-型小行星]]